LEMUR-1                 
1 40044U 14033AL  26167.14864749  .00001855  00000+0  21777-3 0  9993
2 40044  97.7876 316.9765 0049714  81.9779 278.7073 14.85243574645317
LEMUR-2-GREENBERG       
1 42837U 17042N   26167.04149039  .00013835  00000+0  45938-3 0  9991
2 42837  97.3811 347.6711 0008645  18.0972 342.0575 15.31298122488217
LEMUR-2-ANDIS           
1 42838U 17042P   26166.74741638  .00017105  00000+0  50837-3 0  9999
2 42838  97.3668 347.5576 0008268  17.6439 342.5090 15.34793930488239
LEMUR-2-MONSON          
1 42839U 17042Q   26167.24423889  .00011783  00000+0  43376-3 0  9997
2 42839  97.4072 347.8466 0006270   9.5837 350.5521 15.27988956488025
LEMUR-2-FURIAUS         
1 42840U 17042R   26167.23065373  .00014586  00000+0  50046-3 0  9994
2 42840  97.3764 345.8169 0008223  72.1902 288.0235 15.30225616488063
LEMUR-2-PETERG          
1 42841U 17042S   26167.25256454  .00017026  00000+0  52175-3 0  9996
2 42841  97.3981 352.2808 0003318   0.7420 359.3827 15.33853520488297
LEMUR-2-DEMBITZ         
1 42842U 17042T   26167.25056216  .00013635  00000+0  46762-3 0  9998
2 42842  97.3819 348.8597 0006833  31.9119 328.2534 15.30268456488206
LEMUR-2-ZACHARY         
1 42845U 17042W   26167.28633498  .00038236  00000+0  67691-3 0  9995
2 42845  97.3587 358.9037 0002958  36.6144 323.5310 15.50195202489061
LEMUR-2-AMANDA-SVANTE   
1 48269U 21034B   26167.18353418  .00027427  00000+0  82769-3 0  9990
2 48269  97.5763 245.4426 0002161 211.4452 148.6661 15.34247275280905
LEMUR-2-SPECIAL-K       
1 48273U 21034F   26167.18987168  .00131575  00000+0  13651-2 0  9993
2 48273  97.5656 253.9745 0004251 229.4186 130.6703 15.64219499281532
LEMUR-2-EMBRIONOVIS     
1 56970U 23084AQ  26166.63977401  .00010854  00000+0  29693-3 0  9991
2 56970  97.6287 310.7792 0007832 326.4033  33.6714 15.37515767167441
LEMUR-2-DEVERILL-M-T    
1 57391U 23100F   26167.00008089  .00023592  00000+0  59840-3 0  9997
2 57391  99.4462 205.4153 0006442  53.5934 306.5898 15.39703604161067
LEMUR-2-BASS            
1 58259U 23174D   26167.23754553  .00015031  00000+0  34170-3 0  9999
2 58259  97.3850 251.9360 0007661 165.2276 194.9197 15.43068810145217
LEMUR-2-JK0903EM1407    
1 58336U 23174CJ  26167.24089853  .00023198  00000+0  39143-3 0  9998
2 58336  97.3927 257.6838 0005761 122.3829 237.7982 15.51639695145580
LEMUR-2-MJR092620       
1 58340U 23174CN  26167.25194057  .00015559  00000+0  33314-3 0  9993
2 58340  97.3983 257.2635 0007103 120.5374 239.6576 15.44846687145500
LEMUR-2-NIMBUS2000      
1 58899U 24022A   26167.10413036  .00013718  00000+0  34551-3 0  9999
2 58899  97.4103  17.0919 0010289 119.1964 241.0312 15.39967800132101
LEMUR-2-VALHALLA        
1 58900U 24022B   26167.10012225  .00012956  00000+0  32987-3 0  9991
2 58900  97.4101  17.0791 0010825 115.4040 244.8328 15.39645761132107
LEMUR-2-CAEL            
1 58903U 24022E   26166.85111518  .00014101  00000+0  34407-3 0  9993
2 58903  97.4084  17.7608 0009272 101.4556 258.7733 15.40937498132135
LEMUR-2-JOHNNYTRUONG    
1 59146U 24043BA  26166.99575145  .00031203  00000+0  38103-3 0  9990
2 59146  97.5376 318.6246 0004765 179.9704 180.1554 15.60387399127851
LEMUR-2-TOMATOKECHUP    
1 60471U 24149D   26167.19529799  .00009181  00000+0  26406-3 0  9990
2 60471  97.3806 249.2392 0001325 177.5329 182.5921 15.36017182102015
LEMUR-2-STELLA          
1 60533U 24149BT  26167.22132946  .00009348  00000+0  55113-3 0  9999
2 60533  97.6744 249.6718 0001740  96.1577 263.9851 15.11795483100357
LEMUR-2-MARHISYAM       
1 60536U 24149BW  26167.26750511  .00008474  00000+0  50760-3 0  9992
2 60536  97.6883 250.1662 0003322 119.6380 240.5181 15.11245809100348
LEMUR-2-AHMED-ASRAR     
1 60576U 24149DN  26167.17023362  .00010015  00000+0  57559-3 0  9990
2 60576  97.7013 252.1573 0001927  45.9242 314.2146 15.12696717100415
LEMUR-2-LLOYD           
1 60577U 24149DP  26167.11407229  .00009047  00000+0  57243-3 0  9996
2 60577  97.6748 248.2419 0004754 143.9486 216.2064 15.09220950100233
LEMUR-2-SQUIRRELCOMM    
1 60578U 24149DQ  26167.19315382  .00004467  00000+0  30131-3 0  9991
2 60578  97.6709 248.1072 0006449  64.5634 295.6261 15.07140753100253
LEMUR-2-SIERRINI        
1 60579U 24149DR  26167.22461775  .00009039  00000+0  54572-3 0  9999
2 60579  97.6849 249.8122 0005786 166.6457 193.4927 15.10932403100319
LEMUR-2-WILSON          
1 62694U 25009CP  26167.22499364  .00002278  00000+0  21265-3 0  9991
2 62694  97.7026 245.7062 0004253  60.5332 299.6313 14.95161350 77214
LEMUR-2-STAR-FOX        
1 62696U 25009CR  26167.16041708  .00006531  00000+0  49627-3 0  9999
2 62696  97.6957 248.7762 0003751 114.0474 246.1144 15.02492808 77406
LEMUR-2-ARIANNA         
1 62699U 25009CU  26167.15874357  .00006504  00000+0  49445-3 0  9993
2 62699  97.6898 248.5503 0004113 119.8587 240.3047 15.02474103 77401
