OBJECT_NAME,OBJECT_ID,EPOCH,MEAN_MOTION,ECCENTRICITY,INCLINATION,RA_OF_ASC_NODE,ARG_OF_PERICENTER,MEAN_ANOMALY,EPHEMERIS_TYPE,CLASSIFICATION_TYPE,NORAD_CAT_ID,ELEMENT_SET_NO,REV_AT_EPOCH,BSTAR,MEAN_MOTION_DOT,MEAN_MOTION_DDOT
LEMUR-1,2014-033AL,2026-06-16T03:34:03.143136,14.85243574,.00497144,97.7876,316.9765,81.9779,278.7073,0,U,40044,999,64531,.21776972E-3,.1855E-4,0
LEMUR-2-GREENBERG,2017-042N,2026-06-16T00:59:44.769696,15.31298122,.00086454,97.3811,347.6711,18.0972,342.0575,0,U,42837,999,48821,.45937548E-3,.13835E-3,0
LEMUR-2-ANDIS,2017-042P,2026-06-15T17:56:16.775232,15.34793930,.00082682,97.3668,347.5576,17.6439,342.5090,0,U,42838,999,48823,.50837373E-3,.17105E-3,0
LEMUR-2-MONSON,2017-042Q,2026-06-16T05:51:42.240096,15.27988956,.00062708,97.4072,347.8466,9.5837,350.5521,0,U,42839,999,48802,.43375924E-3,.11783E-3,0
LEMUR-2-FURIAUS,2017-042R,2026-06-16T05:32:08.482272,15.30225616,.0008223,97.3764,345.8169,72.1902,288.0235,0,U,42840,999,48806,.5004646E-3,.14586E-3,0
LEMUR-2-PETERG,2017-042S,2026-06-16T06:03:41.576256,15.33853520,.00033185,97.3981,352.2808,0.7420,359.3827,0,U,42841,999,48829,.5217489E-3,.17026E-3,0
LEMUR-2-DEMBITZ,2017-042T,2026-06-16T06:00:48.570624,15.30268456,.00068337,97.3819,348.8597,31.9119,328.2534,0,U,42842,999,48820,.46761883E-3,.13635E-3,0
LEMUR-2-ZACHARY,2017-042W,2026-06-16T06:52:19.342272,15.50195202,.00029589,97.3587,358.9037,36.6144,323.5310,0,U,42845,999,48906,.6769107E-3,.38236E-3,0
LEMUR-2-AMANDA-SVANTE,2021-034B,2026-06-16T04:24:17.353152,15.34247275,.00021616,97.5763,245.4426,211.4452,148.6661,0,U,48269,999,28090,.8276876E-3,.27427E-3,0
LEMUR-2-SPECIAL-K,2021-034F,2026-06-16T04:33:24.913152,15.64219499,.00042516,97.5656,253.9745,229.4186,130.6703,0,U,48273,999,28153,.13651016E-2,.131575E-2,0
LEMUR-2-EMBRIONOVIS,2023-084AQ,2026-06-15T15:21:16.474464,15.37515767,.00078323,97.6287,310.7792,326.4033,33.6714,0,U,56970,999,16744,.29692858E-3,.10854E-3,0
LEMUR-2-DEVERILL-M-T,2023-100F,2026-06-16T00:00:06.988896,15.39703604,.00064429,99.4462,205.4153,53.5934,306.5898,0,U,57391,999,16106,.59839776E-3,.23592E-3,0
LEMUR-2-BASS,2023-174D,2026-06-16T05:42:03.933792,15.43068810,.00076612,97.3850,251.9360,165.2276,194.9197,0,U,58259,999,14521,.34170348E-3,.15031E-3,0
LEMUR-2-JK0903EM1407,2023-174CJ,2026-06-16T05:46:53.632992,15.51639695,.00057619,97.3927,257.6838,122.3829,237.7982,0,U,58336,999,14558,.39142651E-3,.23198E-3,0
LEMUR-2-MJR092620,2023-174CN,2026-06-16T06:02:47.665248,15.44846687,.00071036,97.3983,257.2635,120.5374,239.6576,0,U,58340,999,14550,.33314203E-3,.15559E-3,0
LEMUR-2-NIMBUS2000,2024-022A,2026-06-16T02:29:56.863104,15.39967800,.00102896,97.4103,17.0919,119.1964,241.0312,0,U,58899,999,13210,.34550749E-3,.13718E-3,0
LEMUR-2-VALHALLA,2024-022B,2026-06-16T02:24:10.562400,15.39645761,.00108256,97.4101,17.0791,115.4040,244.8328,0,U,58900,999,13210,.32987216E-3,.12956E-3,0
LEMUR-2-CAEL,2024-022E,2026-06-15T20:25:36.351552,15.40937498,.00092721,97.4084,17.7608,101.4556,258.7733,0,U,58903,999,13213,.34407481E-3,.14101E-3,0
LEMUR-2-JOHNNYTRUONG,2024-043BA,2026-06-15T23:53:52.925280,15.60387399,.00047652,97.5376,318.6246,179.9704,180.1554,0,U,59146,999,12785,.38102725E-3,.31203E-3,0
LEMUR-2-TOMATOKECHUP,2024-149D,2026-06-16T04:41:13.746336,15.36017182,.00013254,97.3806,249.2392,177.5329,182.5921,0,U,60471,999,10201,.26406406E-3,.9181E-4,0
LEMUR-2-STELLA,2024-149BT,2026-06-16T05:18:42.865344,15.11795483,.00017406,97.6744,249.6718,96.1577,263.9851,0,U,60533,999,10035,.55112839E-3,.9348E-4,0
LEMUR-2-MARHISYAM,2024-149BW,2026-06-16T06:25:12.441504,15.11245809,.00033228,97.6883,250.1662,119.6380,240.5181,0,U,60536,999,10034,.50760101E-3,.8474E-4,0
LEMUR-2-AHMED-ASRAR,2024-149DN,2026-06-16T04:05:08.184768,15.12696717,.0001927,97.7013,252.1573,45.9242,314.2146,0,U,60576,999,10041,.57559159E-3,.10015E-3,0
LEMUR-2-LLOYD,2024-149DP,2026-06-16T02:44:15.845856,15.09220950,.00047546,97.6748,248.2419,143.9486,216.2064,0,U,60577,999,10023,.57243197E-3,.9047E-4,0
LEMUR-2-SQUIRRELCOMM,2024-149DQ,2026-06-16T04:38:08.490048,15.07140753,.00064499,97.6709,248.1072,64.5634,295.6261,0,U,60578,999,10025,.30130658E-3,.4467E-4,0
LEMUR-2-SIERRINI,2024-149DR,2026-06-16T05:23:26.973600,15.10932403,.00057864,97.6849,249.8122,166.6457,193.4927,0,U,60579,999,10031,.54572497E-3,.9039E-4,0
LEMUR-2-WILSON,2025-009CP,2026-06-16T05:23:59.450496,14.95161350,.00042536,97.7026,245.7062,60.5332,299.6313,0,U,62694,999,7721,.21264961E-3,.2278E-4,0
LEMUR-2-STAR-FOX,2025-009CR,2026-06-16T03:51:00.035712,15.02492808,.00037519,97.6957,248.7762,114.0474,246.1144,0,U,62696,999,7740,.49627009E-3,.6531E-4,0
LEMUR-2-ARIANNA,2025-009CU,2026-06-16T03:48:35.444448,15.02474103,.00041139,97.6898,248.5503,119.8587,240.3047,0,U,62699,999,7740,.49444971E-3,.6504E-4,0
